OBJECT_NAME,OBJECT_ID,EPOCH,MEAN_MOTION,ECCENTRICITY,INCLINATION,RA_OF_ASC_NODE,ARG_OF_PERICENTER,MEAN_ANOMALY,EPHEMERIS_TYPE,CLASSIFICATION_TYPE,NORAD_CAT_ID,ELEMENT_SET_NO,REV_AT_EPOCH,BSTAR,MEAN_MOTION_DOT,MEAN_MOTION_DDOT
GSAT-7,2013-044B,2026-06-13T01:31:38.534016,1.00270270,.00031596,0.0734,96.6450,188.8516,72.7776,0,U,39234,999,4521,0,-.63E-6,0
AMOS-4,2013-045A,2026-06-13T01:29:08.772576,1.00272178,.00025326,0.0466,92.1095,328.4529,288.1111,0,U,39237,999,4691,0,.2E-6,0
AEHF-3 (USA 246),2013-050A,2026-06-13T06:17:53.959776,1.00271615,.00877395,5.2844,67.2202,188.0517,336.4909,0,U,39256,999,4561,0,.38E-6,0
ASTRA 2E,2013-056A,2026-06-13T06:26:27.321792,1.00270417,.00027353,0.0606,331.6820,112.6223,302.3903,0,U,39285,999,4637,0,.163E-5,0
FM-6,2013-058A,2026-06-12T16:04:00.486912,1.00266307,.00010688,0.0129,86.3356,72.7874,226.5518,0,U,39360,999,4602,0,-.1E-7,0
RADUGA-1M 3,2013-062A,2026-06-12T20:12:36.910368,1.00270317,.00016525,5.9456,72.4084,264.3543,262.5441,0,U,39375,999,4606,0,.162E-5,0
SES-8,2013-071A,2026-06-13T01:37:37.959744,1.00271327,.00026093,0.0216,290.2011,155.9199,294.6809,0,U,39460,999,4438,0,-.256E-5,0
INMARSAT 5-F1,2013-073A,2026-06-12T23:45:47.740032,1.00270661,.00005758,0.0178,3.6196,304.0070,12.7600,0,U,39476,999,4553,0,.41E-6,0
TKSAT-1 (TUPAC KATARI),2013-075A,2026-06-13T05:53:38.164704,1.00270647,.00023415,0.0441,148.3392,282.5794,191.8720,0,U,39481,999,4556,0,-.182E-5,0
EXPRESS-AM5,2013-077A,2026-06-12T18:59:54.288384,1.00269173,.00004452,0.0157,288.8969,55.3378,341.8938,0,U,39487,999,4631,0,-.266E-5,0
GSAT-14,2014-001A,2026-06-13T01:31:38.534016,1.00270784,.00009883,0.0264,87.2717,193.6555,77.3599,0,U,39498,999,4533,0,-.64E-6,0
THAICOM 6,2014-002A,2026-06-12T16:59:36.493728,1.00270005,.00043579,0.0568,123.0489,344.5886,126.7759,0,U,39500,999,4541,0,-.106E-5,0
TDRS 12,2014-004A,2026-06-13T00:58:48.883584,1.00268041,.00030742,3.9730,19.0194,199.0306,17.0798,0,U,39504,999,4423,0,-.26E-5,0
ABS-2,2014-006A,2026-06-13T03:01:57.528192,1.00270930,.00038275,0.0430,81.6157,345.2242,315.0232,0,U,39508,999,4523,0,-.73E-6,0
ATHENA-FIDUS,2014-006B,2026-06-13T03:04:02.263008,1.00270924,.00012115,0.0191,41.4155,48.4349,255.4025,0,U,39509,999,4504,0,.167E-5,0
TURKSAT 4A,2014-007A,2026-06-13T06:30:34.428384,1.00271970,.0001369,0.0428,303.0730,11.8859,86.2645,0,U,39522,999,4492,0,.159E-5,0
EXPRESS-AT1,2014-010A,2026-06-13T01:28:08.868864,1.00302427,.00037922,0.2454,85.8571,40.9466,218.4761,0,U,39612,999,4477,0,.41E-6,0
EXPRESS-AT2,2014-010B,2026-06-13T01:26:31.523712,1.00273161,.00004421,0.0163,316.4276,0.5086,22.0728,0,U,39613,999,4445,0,.92E-6,0
AMAZONAS 4A,2014-011A,2026-06-13T05:31:25.492224,1.00271161,.00037422,0.0608,184.4983,285.9729,159.9444,0,U,39616,999,4467,0,-.24E-5,0
ASTRA 5B,2014-011B,2026-06-13T06:25:12.442368,1.00271699,.00017933,0.0488,330.8836,100.2743,310.2193,0,U,39617,999,4462,0,.149E-5,0
IRNSS-1B,2014-017A,2026-06-12T18:35:50.826048,1.00274964,.00229967,28.9293,240.4792,189.7965,164.8784,0,U,39635,999,4474,0,.132E-5,0
LUCH-5V,2014-023A,2026-06-12T19:52:21.641664,1.00276420,.00019127,5.1201,69.7874,42.2592,181.8480,0,U,39727,999,4431,0,-.259E-5,0
KAZSAT-3,2014-023B,2026-06-13T01:27:16.452576,1.00273090,.00000575,0.0191,35.4294,92.7487,213.5202,0,U,39728,999,4241,0,.73E-6,0
EUTELSAT 3B,2014-030A,2026-06-13T06:19:27.992352,1.00269782,.0003919,0.0626,7.2490,76.3848,275.9106,0,U,39773,999,4402,0,.32E-6,0
ASIASAT 8 (AMOS-7),2014-046A,2026-06-13T06:48:38.285280,1.00268245,.00012282,0.0170,347.9965,104.7880,16.2772,0,U,40107,999,10211,0,-.32E-5,0
ASIASAT 6,2014-052A,2026-06-13T06:52:45.390144,1.00273108,.0000615,0.0137,42.4789,46.1680,36.0572,0,U,40141,999,4304,0,-.35E-5,0
OPTUS 10,2014-054A,2026-06-12T19:04:23.857248,1.00271127,.00019581,0.1286,344.0148,98.3193,260.8847,0,U,40146,999,4298,0,-.133E-5,0
MEASAT-3B,2014-054B,2026-06-13T01:36:38.055168,1.00271119,.00031476,0.0562,54.7889,18.2305,304.0271,0,U,40147,999,4286,0,-.228E-5,0
HIMAWARI-8,2014-060A,2026-06-13T06:25:10.746336,1.00272785,.00009696,0.0148,350.7865,92.8767,54.8709,0,U,40267,999,4272,0,-.263E-5,0
IRNSS-1C,2014-061A,2026-06-12T20:26:09.409920,1.00270018,.00227155,6.5073,89.0124,1.9196,199.7837,0,U,40269,999,4264,0,-.152E-5,0
INTELSAT 30 (IS-30),2014-062A,2026-06-12T23:00:49.798080,1.00271249,.00012628,0.0286,52.1946,328.6527,130.5879,0,U,40271,999,675,0,-.137E-5,0
ARSAT 1,2014-062B,2026-06-13T05:31:14.084832,1.00271594,.00017016,0.0226,34.0523,40.4042,198.0994,0,U,40272,999,4258,0,-.247E-5,0
