GSAT-7                  
1 39234U 13044B   26164.06364044 -.00000063  00000+0  00000+0 0  9997
2 39234   0.0734  96.6450 0003159 188.8516  72.7776  1.00270270 45219
AMOS-4                  
1 39237U 13045A   26164.06190709  .00000020  00000+0  00000+0 0  9998
2 39237   0.0466  92.1095 0002532 328.4529 288.1111  1.00272178 46913
AEHF-3 (USA 246)        
1 39256U 13050A   26164.26243009  .00000038  00000+0  00000+0 0  9998
2 39256   5.2844  67.2202 0087739 188.0517 336.4909  1.00271615 45616
ASTRA 2E                
1 39285U 13056A   26164.26837178  .00000163  00000+0  00000+0 0  9991
2 39285   0.0606 331.6820 0002735 112.6223 302.3903  1.00270417 46370
FM-6                    
1 39360U 13058A   26163.66945008 -.00000001  00000+0  00000+0 0  9994
2 39360   0.0129  86.3356 0001068  72.7874 226.5518  1.00266307 46022
RADUGA-1M 3             
1 39375U 13062A   26163.84209387  .00000162  00000+0  00000+0 0  9995
2 39375   5.9456  72.4084 0001652 264.3543 262.5441  1.00270317 46065
SES-8                   
1 39460U 13071A   26164.06780046 -.00000256  00000+0  00000+0 0  9996
2 39460   0.0216 290.2011 0002609 155.9199 294.6809  1.00271327 44384
INMARSAT 5-F1           
1 39476U 13073A   26163.99013588  .00000041  00000+0  00000+0 0  9997
2 39476   0.0178   3.6196 0000575 304.0070  12.7600  1.00270661 45539
TKSAT-1 (TUPAC KATARI)  
1 39481U 13075A   26164.24558061 -.00000182  00000+0  00000+0 0  9991
2 39481   0.0441 148.3392 0002341 282.5794 191.8720  1.00270647 45568
EXPRESS-AM5             
1 39487U 13077A   26163.79160056 -.00000266  00000+0  00000+0 0  9994
2 39487   0.0157 288.8969 0000445  55.3378 341.8938  1.00269173 46319
GSAT-14                 
1 39498U 14001A   26164.06364044 -.00000064  00000+0  00000+0 0  9994
2 39498   0.0264  87.2717 0000988 193.6555  77.3599  1.00270784 45332
THAICOM 6               
1 39500U 14002A   26163.70806127 -.00000106  00000+0  00000+0 0  9999
2 39500   0.0568 123.0489 0004357 344.5886 126.7759  1.00270005 45418
TDRS 12                 
1 39504U 14004A   26164.04084356 -.00000260  00000+0  00000+0 0  9996
2 39504   3.9730  19.0194 0003074 199.0306  17.0798  1.00268041 44238
ABS-2                   
1 39508U 14006A   26164.12636028 -.00000073  00000+0  00000+0 0  9992
2 39508   0.0430  81.6157 0003827 345.2242 315.0232  1.00270930 45236
ATHENA-FIDUS            
1 39509U 14006B   26164.12780397  .00000167  00000+0  00000+0 0  9995
2 39509   0.0191  41.4155 0001211  48.4349 255.4025  1.00270924 45047
TURKSAT 4A              
1 39522U 14007A   26164.27123181  .00000159  00000+0  00000+0 0  9990
2 39522   0.0428 303.0730 0001369  11.8859  86.2645  1.00271970 44921
EXPRESS-AT1             
1 39612U 14010A   26164.06121376  .00000041  00000+0  00000+0 0  9995
2 39612   0.2454  85.8571 0003792  40.9466 218.4761  1.00302427 44772
EXPRESS-AT2             
1 39613U 14010B   26164.06008708  .00000092  00000+0  00000+0 0  9995
2 39613   0.0163 316.4276 0000442   0.5086  22.0728  1.00273161 44451
AMAZONAS 4A             
1 39616U 14011A   26164.23015616 -.00000240  00000+0  00000+0 0  9990
2 39616   0.0608 184.4983 0003742 285.9729 159.9444  1.00271161 44672
ASTRA 5B                
1 39617U 14011B   26164.26750512  .00000149  00000+0  00000+0 0  9992
2 39617   0.0488 330.8836 0001793 100.2743 310.2193  1.00271699 44626
IRNSS-1B                
1 39635U 14017A   26163.77489382  .00000132  00000+0  00000+0 0  9999
2 39635  28.9293 240.4792 0022996 189.7965 164.8784  1.00274964 44742
LUCH-5V                 
1 39727U 14023A   26163.82802826 -.00000259  00000+0  00000+0 0  9997
2 39727   5.1201  69.7874 0001912  42.2592 181.8480  1.00276420 44311
KAZSAT-3                
1 39728U 14023B   26164.06060709  .00000073  00000+0  00000+0 0  9994
2 39728   0.0191  35.4294 0000057  92.7487 213.5202  1.00273090 42416
EUTELSAT 3B             
1 39773U 14030A   26164.26351843  .00000032  00000+0  00000+0 0  9991
2 39773   0.0626   7.2490 0003919  76.3848 275.9106  1.00269782 44020
ASIASAT 8 (AMOS-7)      
1 40107U 14046A   26164.28377645 -.00000320  00000+0  00000+0 0  9992
2 40107   0.0170 347.9965 0001228 104.7880  16.2772  1.00268245102114
ASIASAT 6               
1 40141U 14052A   26164.28663646 -.00000350  00000+0  00000+0 0  9999
2 40141   0.0137  42.4789 0000615  46.1680  36.0572  1.00273108 43040
OPTUS 10                
1 40146U 14054A   26163.79472057 -.00000133  00000+0  00000+0 0  9994
2 40146   0.1286 344.0148 0001958  98.3193 260.8847  1.00271127 42983
MEASAT-3B               
1 40147U 14054B   26164.06710712 -.00000228  00000+0  00000+0 0  9994
2 40147   0.0562  54.7889 0003147  18.2305 304.0271  1.00271119 42865
HIMAWARI-8              
1 40267U 14060A   26164.26748549 -.00000263  00000+0  00000+0 0  9994
2 40267   0.0148 350.7865 0000969  92.8767  54.8709  1.00272785 42721
IRNSS-1C                
1 40269U 14061A   26163.85149780 -.00000152  00000+0  00000+0 0  9990
2 40269   6.5073  89.0124 0022715   1.9196 199.7837  1.00270018 42640
INTELSAT 30 (IS-30)     
1 40271U 14062A   26163.95890970 -.00000137  00000+0  00000+0 0  9992
2 40271   0.0286  52.1946 0001262 328.6527 130.5879  1.00271249  6750
ARSAT 1                 
1 40272U 14062B   26164.23002413 -.00000247  00000+0  00000+0 0  9994
2 40272   0.0226  34.0523 0001701  40.4042 198.0994  1.00271594 42585
